{"type": "FeatureCollection", "_source": "OpenStreetMap contributors (ODbL), Overpass API", "features": [{"type": "Feature", "properties": {"name": "Kraków", "kind": "city", "ref": null}, "geometry": {"type": "Polygon", "coordinates": [[[20.0772818, 50.1082195], [20.0841777, 50.1102478], [20.0843567, 50.111225], [20.0879526, 50.1114018], [20.0881601, 50.1134611], [20.0941148, 50.1147935], [20.0942206, 50.1163003], [20.0962474, 50.1193493], [20.1083761, 50.116733], [20.1113472, 50.1164986], [20.1113953, 50.1168973], [20.114826, 50.1169939], [20.1172589, 50.1167823], [20.1179553, 50.1162842], [20.1185541, 50.1167724], [20.1199843, 50.1164544], [20.1208459, 50.1084578], [20.123137, 50.108448], [20.1317098, 50.1068346], [20.1431143, 50.1064684], [20.1446619, 50.111458], [20.1468826, 50.1143435], [20.1514818, 50.1170359], [20.1530102, 50.1188226], [20.1543396, 50.1194579], [20.1563402, 50.1185711], [20.1591962, 50.1208013], [20.1590596, 50.1216058], [20.1658476, 50.1215309], [20.1658057, 50.1205136], [20.1723928, 50.1203855], [20.1731873, 50.1188238], [20.1742213, 50.1190197], [20.1749363, 50.1197894], [20.1787847, 50.1183375], [20.1798143, 50.11723], [20.1815673, 50.1166257], [20.1824523, 50.1178363], [20.1853525, 50.1167593], [20.1868614, 50.1182179], [20.1897515, 50.1177983], [20.1910273, 50.1190525], [20.1925024, 50.119634], [20.1954917, 50.118492], [20.1962474, 50.1196803], [20.1977911, 50.1196395], [20.1989838, 50.1205715], [20.2012909, 50.120432], [20.2016157, 50.1174874], [20.2047727, 50.117386], [20.2038554, 50.1171524], [20.20398, 50.1159551], [20.2090788, 50.1155647], [20.2050176, 50.1111306], [20.2022411, 50.1111167], [20.1978859, 50.108509], [20.1961313, 50.1082614], [20.1950586, 50.1054128], [20.1931038, 50.1032182], [20.1916327, 50.0974844], [20.1917423, 50.0916509], [20.1928405, 50.0878221], [20.1891868, 50.0864468], [20.1849381, 50.0859683], [20.1855854, 50.0853686], [20.1893085, 50.0847394], [20.1899702, 50.0839734], [20.1900179, 50.0819864], [20.1926948, 50.0804374], [20.1936058, 50.0791063], [20.1946136, 50.0787797], [20.1945914, 50.0782211], [20.1955268, 50.0781366], [20.1956059, 50.0763963], [20.1994603, 50.0748687], [20.1995664, 50.0742424], [20.1952346, 50.0739553], [20.1944545, 50.0734309], [20.1929623, 50.0722761], [20.1930122, 50.0704691], [20.197546, 50.0691472], [20.1989595, 50.0681528], [20.1991841, 50.0669959], [20.2043802, 50.0648186], [20.2063581, 50.0650133], [20.2122579, 50.0576876], [20.2173455, 50.053434], [20.2130242, 50.0503282], [20.2096194, 50.045107], [20.2078102, 50.0441441], [20.2043597, 50.0435833], [20.1999456, 50.0442038], [20.1935437, 50.0472871], [20.188534, 50.048344], [20.1838486, 50.0480159], [20.1665551, 50.0438496], [20.1595405, 50.0428268], [20.1535136, 50.0430569], [20.1422648, 50.0457455], [20.1392936, 50.0459408], [20.1352977, 50.0449041], [20.1304304, 50.0409091], [20.1276645, 50.0398158], [20.1250609, 50.0397312], [20.1157537, 50.0425944], [20.1068556, 50.0424426], [20.1031885, 50.0411843], [20.099366, 50.0378006], [20.0959551, 50.0369577], [20.0940225, 50.0371484], [20.092179, 50.0380154], [20.0915528, 50.0395854], [20.0922827, 50.0420709], [20.0891016, 50.0448222], [20.0879882, 50.044891], [20.0836815, 50.0415626], [20.0803266, 50.0407033], [20.0810186, 50.0387092], [20.0819834, 50.038913], [20.0838074, 50.0378975], [20.0797312, 50.0358002], [20.0817144, 50.0342604], [20.0735681, 50.0321926], [20.0728462, 50.03152], [20.0722738, 50.0297528], [20.0676984, 50.0254493], [20.0648646, 50.0242708], [20.0671634, 50.0221882], [20.0684331, 50.0219953], [20.0697498, 50.0183343], [20.0690823, 50.0157466], [20.0676575, 50.0130862], [20.0678795, 50.0117004], [20.0673863, 50.0097652], [20.0662604, 50.0090277], [20.0656667, 50.0077867], [20.0630346, 50.008132], [20.0623538, 50.0076151], [20.0623305, 50.0063225], [20.0607528, 50.0053323], [20.0582874, 50.005657], [20.0572846, 50.0047079], [20.0551596, 50.0045967], [20.0551691, 50.0041137], [20.0516104, 50.0038262], [20.0482829, 50.0041695], [20.0477909, 50.0016489], [20.0479678, 49.999092], [20.0473937, 49.9989794], [20.0391697, 49.999826], [20.0377257, 50.0010017], [20.0356987, 50.0014096], [20.0288916, 50.0011012], [20.0293207, 49.9996221], [20.0284838, 49.9991784], [20.0235956, 50.0030138], [20.018814, 50.0031142], [20.0182813, 50.0043264], [20.0063078, 50.0024886], [20.0061148, 50.0019639], [20.0037281, 50.0007739], [20.002761, 49.9992344], [20.0032545, 49.9980064], [20.004425, 49.9969718], [20.0122329, 49.9946847], [20.0128439, 49.993422], [20.0134532, 49.9933293], [20.0139143, 49.9913531], [20.015427, 49.9888524], [20.0186719, 49.9863158], [20.0186045, 49.9858628], [20.0160234, 49.9843801], [20.0137671, 49.9822941], [20.0097018, 49.9801825], [20.0100162, 49.9772436], [20.0091689, 49.9760989], [20.0076733, 49.9754066], [20.0082233, 49.9750835], [20.003371, 49.9746368], [20.0029029, 49.9746767], [20.0033005, 49.9752036], [20.0011253, 49.9756835], [19.9972934, 49.9739454], [19.9900818, 49.973002], [19.9812796, 49.9726303], [19.9810732, 49.9732173], [19.9822611, 49.9760921], [19.9822352, 49.9771143], [19.9813777, 49.9782335], [19.9825911, 49.9801889], [19.9824853, 49.9809244], [19.9756422, 49.9808494], [19.9689581, 49.9794891], [19.9642996, 49.977746], [19.9655997, 49.9764785], [19.9670402, 49.9731654], [19.9649011, 49.9730217], [19.963093, 49.9723236], [19.9628773, 49.9712333], [19.9634431, 49.9685611], [19.962158, 49.9683609], [19.9615466, 49.9683663], [19.9616001, 49.9689444], [19.9594615, 49.9692598], [19.9588683, 49.9682463], [19.957443, 49.9683758], [19.9575307, 49.9678764], [19.9569833, 49.968282], [19.9553879, 49.9677066], [19.9557148, 49.9686563], [19.9541131, 49.9694716], [19.9538055, 49.9700766], [19.9521058, 49.9701007], [19.9517147, 49.9695172], [19.9508387, 49.9698584], [19.951225, 49.9706404], [19.9505786, 49.9707003], [19.9506951, 49.9710788], [19.9489689, 49.9712947], [19.9476494, 49.9722927], [19.9449165, 49.9722153], [19.9444424, 49.9730598], [19.9437734, 49.9728452], [19.9428496, 49.9733409], [19.9432711, 49.9739451], [19.940608, 49.9744606], [19.9407373, 49.9747991], [19.9401038, 49.9748682], [19.9402646, 49.9752789], [19.9390737, 49.9745399], [19.9377745, 49.9745374], [19.9340521, 49.9755714], [19.9344718, 49.9764385], [19.9329771, 49.9768564], [19.9331788, 49.9777148], [19.9324432, 49.9782152], [19.9325897, 49.9787939], [19.9314354, 49.9784321], [19.9284075, 49.9791477], [19.9274167, 49.9798253], [19.9278168, 49.9802849], [19.9273426, 49.9808216], [19.9256973, 49.9813188], [19.9189848, 49.9799994], [19.9133463, 49.9798532], [19.9120007, 49.9813064], [19.9096517, 49.9819736], [19.9085548, 49.9814969], [19.9001585, 49.9812178], [19.8962633, 49.9804363], [19.8874035, 49.9803886], [19.8872794, 49.9793388], [19.8851328, 49.9779669], [19.8854402, 49.9769297], [19.8846945, 49.9761127], [19.8799765, 49.9740513], [19.8794366, 49.9714543], [19.8706692, 49.9717436], [19.8689333, 49.9724835], [19.8676682, 49.9744804], [19.8633488, 49.9748275], [19.8606953, 49.9759097], [19.8629842, 49.9765687], [19.8624424, 49.9798256], [19.8644857, 49.9801402], [19.8644438, 49.9832655], [19.8632396, 49.9837402], [19.8623943, 49.9847094], [19.8598775, 49.9847176], [19.8565634, 49.9855128], [19.8487785, 49.985191], [19.8482518, 49.9897896], [19.8492427, 49.9926744], [19.8495332, 49.9946727], [19.8490132, 49.9948749], [19.8440425, 49.994502], [19.8426646, 49.9950379], [19.8380956, 49.9950258], [19.8370737, 49.9955314], [19.8316085, 49.9960405], [19.8224402, 49.9962432], [19.8219424, 49.9967653], [19.8193464, 49.9969941], [19.8151575, 49.9958148], [19.8142121, 49.9951248], [19.8147548, 49.9944066], [19.8126567, 49.9947767], [19.8110141, 49.9944364], [19.8112295, 49.9937156], [19.8103529, 49.9929558], [19.8095568, 49.9929213], [19.8095351, 49.9921683], [19.8059868, 49.9930259], [19.8036124, 49.9929625], [19.8038601, 49.9943275], [19.8017101, 49.9934322], [19.8008887, 49.9939901], [19.8006098, 49.9948146], [19.8009454, 49.9950572], [19.800228, 49.9957366], [19.7987871, 49.9959671], [19.7983182, 49.9953214], [19.796474, 49.9945366], [19.7956655, 49.9952854], [19.7966312, 49.9973688], [19.7946877, 50.0060496], [19.7923785, 50.0110354], [19.7923014, 50.0122454], [19.7938686, 50.014403], [19.7975465, 50.0156007], [19.799929, 50.0175115], [19.8020037, 50.0226943], [19.8031794, 50.0242931], [19.8058965, 50.0260906], [19.8079064, 50.0265501], [19.8103093, 50.0263768], [19.8123432, 50.0254286], [19.815174, 50.0215123], [19.8170674, 50.0206625], [19.819451, 50.0203863], [19.8218118, 50.0208709], [19.8277084, 50.0237589], [19.8291006, 50.0258168], [19.8263252, 50.0324058], [19.8210675, 50.0318898], [19.8186645, 50.0323359], [19.8157146, 50.0337], [19.8134315, 50.0354073], [19.8125822, 50.0376849], [19.8128512, 50.0392016], [19.8124634, 50.039831], [19.8106401, 50.0406543], [19.8112881, 50.0433214], [19.8177365, 50.049103], [19.8194993, 50.0514606], [19.8207069, 50.0552748], [19.820733, 50.056804], [19.8219393, 50.0582158], [19.8198426, 50.0582196], [19.8158687, 50.0593535], [19.8111968, 50.0584559], [19.809293, 50.0610013], [19.8045257, 50.0621045], [19.804608, 50.0645511], [19.8016969, 50.0692124], [19.8060968, 50.0722633], [19.8083304, 50.0770339], [19.8082856, 50.0783909], [19.8112522, 50.080164], [19.8182886, 50.0809939], [19.8193555, 50.0817307], [19.823283, 50.0825909], [19.8236892, 50.083424], [19.8279977, 50.0858011], [19.829828, 50.0881164], [19.8319379, 50.0885398], [19.8343732, 50.0883064], [19.8355677, 50.089588], [19.8364668, 50.0893369], [19.8377551, 50.0904615], [19.8430963, 50.0923842], [19.8449853, 50.0922214], [19.8518718, 50.094429], [19.8586188, 50.0935059], [19.8615817, 50.0926584], [19.8673734, 50.0991782], [19.8666109, 50.0999994], [19.8654312, 50.0995063], [19.8647161, 50.100238], [19.8643373, 50.1017452], [19.8618268, 50.1059494], [19.8633191, 50.1073318], [19.8673644, 50.1074484], [19.8752732, 50.1110458], [19.8766689, 50.1125778], [19.8789145, 50.1183113], [19.8807842, 50.1204901], [19.8844237, 50.1221565], [19.8895164, 50.1227551], [19.8914092, 50.1225059], [19.8904671, 50.1240076], [19.8925564, 50.1243443], [19.8925084, 50.1260797], [19.8995872, 50.1257955], [19.898288, 50.125342], [19.8983767, 50.1250084], [19.9005009, 50.1255086], [19.9024082, 50.123382], [19.9058817, 50.1209799], [19.9086826, 50.1178065], [19.9140637, 50.105612], [19.9151089, 50.1009326], [19.918853, 50.1001876], [19.9187832, 50.1013425], [19.926971, 50.1048116], [19.9281495, 50.1049175], [19.9281422, 50.1043255], [19.9288719, 50.1037316], [19.9307884, 50.104812], [19.9293572, 50.1066499], [19.9312038, 50.1074736], [19.9310637, 50.1086264], [19.9275991, 50.1103925], [19.9271045, 50.1102451], [19.9293568, 50.1077074], [19.9279985, 50.1078647], [19.9272073, 50.1072755], [19.9260292, 50.1081195], [19.9244441, 50.111302], [19.9257387, 50.1123993], [19.9249411, 50.1140731], [19.9272873, 50.1146219], [19.9277364, 50.1135073], [19.9354286, 50.1151557], [19.9352625, 50.115532], [19.939974, 50.1162457], [19.9401713, 50.1189269], [19.9413115, 50.1190376], [19.9431925, 50.1188236], [19.9473325, 50.1193374], [19.9487605, 50.116543], [19.9511972, 50.114074], [19.9558953, 50.1105161], [19.9574397, 50.110596], [19.9573107, 50.1093914], [19.9581334, 50.1083202], [19.960423, 50.1084806], [19.9632684, 50.1101987], [19.9682439, 50.1085161], [19.9706325, 50.1072095], [19.9790588, 50.1058171], [19.9807161, 50.1049586], [19.9813581, 50.1055659], [19.9866724, 50.1047823], [19.9948253, 50.107011], [20.0045919, 50.1071566], [20.0175664, 50.1064441], [20.0247319, 50.1039834], [20.0276286, 50.1043586], [20.0280024, 50.1057673], [20.0300359, 50.105885], [20.0316243, 50.1078848], [20.0340296, 50.1087366], [20.0357976, 50.1086157], [20.0352289, 50.1099936], [20.03601, 50.1101676], [20.036815, 50.1111366], [20.0369792, 50.1126213], [20.037513, 50.1129234], [20.0419197, 50.1134874], [20.0441835, 50.1106947], [20.0447071, 50.1103223], [20.0454733, 50.1111558], [20.0469527, 50.1093135], [20.0507638, 50.1102854], [20.0510631, 50.1105591], [20.0503594, 50.1109404], [20.0507242, 50.1111923], [20.0518694, 50.1106397], [20.0525191, 50.1120886], [20.0535016, 50.1128233], [20.056429, 50.1126015], [20.0580733, 50.1137381], [20.0584777, 50.1146945], [20.0617882, 50.1142662], [20.0615879, 50.1135309], [20.0701623, 50.1139286], [20.0702607, 50.1127399], [20.0764541, 50.112959], [20.0786331, 50.112531], [20.0790385, 50.112345], [20.0754935, 50.1094895], [20.0772818, 50.1082195]]]}}, {"type": "Feature", "properties": {"name": "Bieńczyce", "kind": "district", "ref": "XVI"}, "geometry": {"type": "Polygon", "coordinates": [[[20.056487, 50.0774473], [20.0523444, 50.0764172], [20.049657, 50.0802046], [20.0435259, 50.0827795], [20.0406738, 50.0834124], [20.0383871, 50.0850529], [20.0285838, 50.0797336], [20.0280885, 50.0803257], [20.0269827, 50.080272], [20.0257109, 50.0787911], [20.0218409, 50.0766855], [20.0191231, 50.0776845], [20.0193018, 50.0781549], [20.0161595, 50.0788946], [20.0152356, 50.0786818], [20.015921, 50.079812], [20.0158873, 50.0816113], [20.0118456, 50.0828443], [20.013272, 50.0857032], [20.0071308, 50.0867786], [20.003449, 50.0881005], [20.0139919, 50.0939344], [20.0174623, 50.0953953], [20.0198886, 50.0954351], [20.027258, 50.0933882], [20.0336614, 50.0934884], [20.0338063, 50.092489], [20.0326647, 50.0908302], [20.0382902, 50.0893298], [20.0449812, 50.0896083], [20.0472426, 50.0887536], [20.0468476, 50.0868448], [20.0477572, 50.0846228], [20.0494288, 50.0835157], [20.0536436, 50.0836488], [20.0530517, 50.0810543], [20.0559612, 50.0787715], [20.056487, 50.0774473]]]}}, {"type": "Feature", "properties": {"name": "Bieżanów-Prokocim", "kind": "district", "ref": null}, "geometry": {"type": "Polygon", "coordinates": [[[20.0002901, 50.0024671], [20.0031952, 50.0034041], [20.001628, 50.0038313], [20.0006628, 50.0053885], [19.9966994, 50.008351], [19.9907073, 50.0112618], [19.9902386, 50.0123429], [19.9909561, 50.0129221], [19.9908162, 50.0132926], [19.9923855, 50.0132446], [19.9910602, 50.0145177], [19.9912064, 50.0154406], [19.9897895, 50.0149433], [19.9782116, 50.0149064], [19.9726929, 50.0155839], [19.9727419, 50.0159753], [19.9762071, 50.0168037], [19.977155, 50.0177738], [19.9771231, 50.0223845], [19.9788921, 50.0239566], [19.9765095, 50.025413], [19.9774207, 50.0259899], [19.9766577, 50.0267226], [19.9773812, 50.0269597], [19.97846, 50.0258882], [19.9819328, 50.0270947], [19.9848778, 50.0257671], [19.9855293, 50.02596], [19.9851097, 50.0263574], [19.9868641, 50.0269927], [19.9920523, 50.0303806], [19.9919795, 50.0308353], [20.0136518, 50.0280279], [20.0145495, 50.02833], [20.0148307, 50.0281486], [20.0143601, 50.0279737], [20.0198273, 50.0265069], [20.027942, 50.0253181], [20.0278421, 50.0284711], [20.0295649, 50.0300561], [20.0296815, 50.0307028], [20.029379, 50.0341048], [20.034165, 50.0351029], [20.0395236, 50.0340192], [20.0529176, 50.0344258], [20.0577521, 50.033705], [20.0627558, 50.0338389], [20.0728222, 50.0314348], [20.0722738, 50.0297528], [20.0676984, 50.0254493], [20.0648646, 50.0242708], [20.0671634, 50.0221882], [20.0684331, 50.0219953], [20.0697498, 50.0183343], [20.0690823, 50.0157466], [20.0676575, 50.0130862], [20.0678795, 50.0117004], [20.0672225, 50.0095365], [20.0662604, 50.0090277], [20.0656667, 50.0077867], [20.0629224, 50.0080828], [20.0623538, 50.0076151], [20.0623305, 50.0063225], [20.0607528, 50.0053323], [20.0582874, 50.005657], [20.0572846, 50.0047079], [20.0551596, 50.0045967], [20.0551691, 50.0041137], [20.0516104, 50.0038262], [20.0482829, 50.0041695], [20.0477909, 50.0016489], [20.0479678, 49.999092], [20.0391697, 49.999826], [20.0377257, 50.0010017], [20.0356987, 50.0014096], [20.0288916, 50.0011012], [20.0293207, 49.9996221], [20.0284838, 49.9991784], [20.0235956, 50.0030138], [20.018814, 50.0031142], [20.0182813, 50.0043264], [20.0063078, 50.0024886], [20.0061148, 50.0019639], [20.0042594, 50.0011685], [20.0000716, 50.001402], [20.0006617, 50.0020299], [20.0002901, 50.0024671]]]}}, {"type": "Feature", "properties": {"name": "Bronowice", "kind": "district", "ref": null}, "geometry": {"type": "Polygon", "coordinates": [[[19.8345348, 50.0885051], [19.8355677, 50.089588], [19.8364668, 50.0893369], [19.8377551, 50.0904615], [19.8390444, 50.0906599], [19.8409387, 50.0917934], [19.8430963, 50.0923842], [19.8449853, 50.0922214], [19.8518718, 50.094429], [19.8586188, 50.0935059], [19.8615817, 50.0926584], [19.8676868, 50.0994326], [19.8689358, 50.0978567], [19.8736398, 50.095573], [19.8788226, 50.0922347], [19.8889943, 50.088158], [19.8922653, 50.0875108], [19.8924603, 50.0872562], [19.8914135, 50.0865251], [19.8913398, 50.0834324], [19.896348, 50.0838093], [19.9043993, 50.0826169], [19.9093427, 50.0824454], [19.9058329, 50.0758034], [19.9039694, 50.0702698], [19.8880811, 50.072274], [19.8872363, 50.0687436], [19.8880635, 50.067475], [19.8840075, 50.0674836], [19.8813472, 50.0680831], [19.8730595, 50.0717886], [19.8679434, 50.0720918], [19.866015, 50.0731905], [19.863388, 50.0735667], [19.8584104, 50.0766326], [19.8557224, 50.0767604], [19.8525789, 50.0778751], [19.8457856, 50.0781901], [19.8392651, 50.0828662], [19.837847, 50.0844246], [19.8376335, 50.085181], [19.8383327, 50.0863193], [19.8378531, 50.0871508], [19.8367077, 50.0880023], [19.8345348, 50.0885051]]]}}, {"type": "Feature", "properties": {"name": "Czyżyny", "kind": "district", "ref": null}, "geometry": {"type": "Polygon", "coordinates": [[[20.0218409, 50.0766855], [20.01629, 50.0739458], [20.0161388, 50.0731863], [20.016939, 50.0726009], [20.0210754, 50.0729363], [20.0292233, 50.0720307], [20.0287164, 50.0710042], [20.0295404, 50.0701085], [20.0308882, 50.069743], [20.028967, 50.0679212], [20.0290185, 50.0660671], [20.0332584, 50.0642925], [20.0355252, 50.0639705], [20.0353271, 50.0643631], [20.0406141, 50.0631732], [20.0403293, 50.0624185], [20.0415906, 50.0623851], [20.0414652, 50.0615654], [20.0421377, 50.0614601], [20.0416316, 50.0599807], [20.0384136, 50.0589353], [20.0393246, 50.0586503], [20.0372884, 50.0577543], [20.036133, 50.0562429], [20.042595, 50.053823], [20.0475439, 50.0534721], [20.0474374, 50.0528372], [20.0483422, 50.0519143], [20.0458593, 50.051272], [20.0403929, 50.0484484], [20.0370525, 50.0478342], [20.0322599, 50.0484436], [20.0258934, 50.0513833], [20.0228337, 50.0516809], [20.0200898, 50.0506038], [20.0158508, 50.0455393], [20.0140976, 50.0449508], [20.011181, 50.0450315], [20.0055191, 50.0469849], [20.0010919, 50.0495073], [19.999261, 50.0511293], [19.9965176, 50.0560433], [19.9939581, 50.058001], [19.9903078, 50.0595668], [19.9868506, 50.0598554], [19.9848277, 50.0615437], [19.9821462, 50.062448], [19.9845359, 50.063692], [19.9886445, 50.0644681], [19.9880621, 50.0681984], [19.9841696, 50.0705552], [19.9858273, 50.0718623], [19.9854488, 50.0721657], [19.9858707, 50.0725824], [19.9871004, 50.0725399], [19.9874181, 50.0732089], [19.9885082, 50.0732672], [19.9881347, 50.075596], [19.9893497, 50.076544], [19.9872389, 50.0796649], [19.9893943, 50.0805175], [19.988268, 50.0825961], [19.9874884, 50.0833937], [19.9864882, 50.0831752], [19.9861841, 50.0837185], [19.9867822, 50.0837065], [19.9866982, 50.084094], [19.9845262, 50.0853389], [19.982342, 50.0855431], [19.9824741, 50.0863458], [19.9930808, 50.0877444], [20.003449, 50.0881005], [20.0071308, 50.0867786], [20.013272, 50.0857032], [20.0118456, 50.0828443], [20.0158873, 50.0816113], [20.015921, 50.079812], [20.0152356, 50.0786818], [20.0161595, 50.0788946], [20.0193018, 50.0781549], [20.0191231, 50.0776845], [20.0218409, 50.0766855]]]}}, {"type": "Feature", "properties": {"name": "Dębniki", "kind": "district", "ref": null}, "geometry": {"type": "Polygon", "coordinates": [[[19.8245131, 50.0320739], [19.8262339, 50.0327405], [19.8269838, 50.0344945], [19.8281516, 50.035167], [19.8367281, 50.0365728], [19.8413619, 50.0385607], [19.8473734, 50.0424498], [19.8516306, 50.0433775], [19.8690548, 50.0439245], [19.8724876, 50.0431913], [19.8795243, 50.0387066], [19.884482, 50.0381125], [19.8959375, 50.0385824], [19.8982544, 50.0393075], [19.9008508, 50.0412187], [19.9064821, 50.0488701], [19.9089806, 50.0507624], [19.9218382, 50.0519589], [19.9298096, 50.0544529], [19.9316506, 50.0539625], [19.9348329, 50.0488773], [19.937798, 50.0457762], [19.9396592, 50.0450325], [19.9420621, 50.0448324], [19.9356043, 50.0410352], [19.9348329, 50.0393552], [19.9285806, 50.0358489], [19.9281717, 50.035098], [19.9286257, 50.034178], [19.92723, 50.0333437], [19.9284661, 50.0318348], [19.9271999, 50.0295891], [19.9261308, 50.0288426], [19.9267971, 50.0281609], [19.9265179, 50.0273226], [19.92686, 50.0267706], [19.9257756, 50.0252147], [19.9252727, 50.0258407], [19.9220378, 50.0265577], [19.9224931, 50.0253059], [19.9223031, 50.0232822], [19.9206946, 50.0230742], [19.9195544, 50.0222062], [19.9143636, 50.0205982], [19.9136698, 50.0189768], [19.9111253, 50.0164426], [19.9075108, 50.0107767], [19.9077908, 50.0103073], [19.9070449, 50.0094299], [19.9074651, 50.0087606], [19.905046, 50.0071913], [19.9030061, 50.0065488], [19.8985791, 50.0066422], [19.8937962, 50.0077068], [19.8920185, 50.0076917], [19.8914119, 50.006999], [19.8900286, 50.0068139], [19.8888214, 50.0026757], [19.8937956, 49.99997], [19.8939756, 49.9982681], [19.8949286, 49.9983076], [19.8958249, 49.9960985], [19.8955512, 49.9963403], [19.8950662, 49.9951144], [19.8925537, 49.9923279], [19.8901783, 49.9921883], [19.890142, 49.9904025], [19.8918388, 49.9899954], [19.891905, 49.9890829], [19.8929784, 49.9884689], [19.892789, 49.9875805], [19.8932005, 49.9869309], [19.8869623, 49.9864934], [19.8857705, 49.9847236], [19.8862597, 49.9844164], [19.8862689, 49.9831223], [19.8888808, 49.9833335], [19.8874637, 49.9810326], [19.8872794, 49.9793388], [19.8851328, 49.9779669], [19.8854402, 49.9769297], [19.8846945, 49.9761127], [19.8799765, 49.9740513], [19.8794366, 49.9714543], [19.8702432, 49.9718302], [19.8689333, 49.9724835], [19.8676682, 49.9744804], [19.8633488, 49.9748275], [19.8606953, 49.9759097], [19.8629842, 49.9765687], [19.8629413, 49.9786184], [19.862376, 49.9786344], [19.8622846, 49.9792574], [19.8624424, 49.9798256], [19.8644857, 49.9801402], [19.8644438, 49.9832655], [19.8632396, 49.9837402], [19.8623943, 49.9847094], [19.8598775, 49.9847176], [19.8565634, 49.9855128], [19.8487785, 49.985191], [19.8482518, 49.9897896], [19.8492427, 49.9926744], [19.8495332, 49.9946727], [19.8490132, 49.9948749], [19.8440425, 49.994502], [19.8426646, 49.9950379], [19.8380956, 49.9950258], [19.8370737, 49.9955314], [19.8316085, 49.9960405], [19.8224402, 49.9962432], [19.8219424, 49.9967653], [19.8193464, 49.9969941], [19.8151575, 49.9958148], [19.8142121, 49.9951248], [19.8147548, 49.9944066], [19.8126567, 49.9947767], [19.8110141, 49.9944364], [19.8112295, 49.9937156], [19.8103529, 49.9929558], [19.8095568, 49.9929213], [19.8095351, 49.9921683], [19.8059868, 49.9930259], [19.8036124, 49.9929625], [19.8038601, 49.9943275], [19.8017101, 49.9934322], [19.8008887, 49.9939901], [19.8006098, 49.9948146], [19.8009454, 49.9950572], [19.800228, 49.9957366], [19.7987871, 49.9959671], [19.7983182, 49.9953214], [19.796474, 49.9945366], [19.7956655, 49.9952854], [19.7966312, 49.9973688], [19.7943382, 50.0072117], [19.7922355, 50.011797], [19.7933464, 50.0139617], [19.794729, 50.0148453], [19.7975465, 50.0156007], [19.7992664, 50.0168043], [19.800426, 50.0182746], [19.8008784, 50.0203267], [19.802612, 50.0236393], [19.8042791, 50.0252234], [19.8070876, 50.026436], [19.8094003, 50.0265381], [19.8115909, 50.0258526], [19.8123432, 50.0254286], [19.815174, 50.0215123], [19.8185913, 50.0203663], [19.8218118, 50.0208709], [19.8277084, 50.0237589], [19.8289231, 50.0252476], [19.8289495, 50.026918], [19.8263252, 50.0324058], [19.8245131, 50.0320739]]]}}, {"type": "Feature", "properties": {"name": "Grzegórzki", "kind": "district", "ref": null}, "geometry": {"type": "Polygon", "coordinates": [[[19.9886445, 50.0644681], [19.9845359, 50.063692], [19.9821462, 50.062448], [19.9848277, 50.0615437], [19.9868506, 50.0598554], [19.9842264, 50.0590973], [19.9789486, 50.054264], [19.972341, 50.0523067], [19.9627876, 50.0528096], [19.9593754, 50.052118], [19.9546645, 50.0501079], [19.9538185, 50.0508616], [19.9533449, 50.050652], [19.9489245, 50.0540737], [19.9483395, 50.0554721], [19.9478544, 50.0555337], [19.9474425, 50.0576192], [19.9473933, 50.0648353], [19.9492579, 50.0650062], [19.949973, 50.0681493], [19.952084, 50.0677792], [19.9601668, 50.0786307], [19.9579216, 50.0787599], [19.9572251, 50.0798371], [19.9592973, 50.0796367], [19.9679907, 50.076867], [19.9731649, 50.0724866], [19.9767201, 50.0672917], [19.9810142, 50.068784], [19.9817696, 50.0684014], [19.9828809, 50.0700562], [19.9833686, 50.0698379], [19.9841696, 50.0705552], [19.9880621, 50.0681984], [19.9886445, 50.0644681]]]}}, {"type": "Feature", "properties": {"name": "Krowodrza", "kind": "district", "ref": null}, "geometry": {"type": "Polygon", "coordinates": [[[19.9024723, 50.0631895], [19.8880831, 50.0675709], [19.8873297, 50.068539], [19.8880811, 50.072274], [19.9039694, 50.0702698], [19.9058329, 50.0758034], [19.9093427, 50.0824454], [19.9183199, 50.0822021], [19.9324144, 50.0826347], [19.9473633, 50.0809769], [19.9451583, 50.0773338], [19.941054, 50.0760495], [19.9410185, 50.0755857], [19.9381107, 50.0734806], [19.9329353, 50.0729579], [19.927533, 50.0701163], [19.9253908, 50.0668747], [19.9237696, 50.0626063], [19.9255113, 50.0592236], [19.9026649, 50.0625984], [19.9024723, 50.0631895]]]}}, {"type": "Feature", "properties": {"name": "Mistrzejowice", "kind": "district", "ref": null}, "geometry": {"type": "Polygon", "coordinates": [[[20.0139919, 50.0939344], [20.003449, 50.0881005], [19.9930808, 50.0877444], [19.9814486, 50.0861442], [19.9793267, 50.0860749], [19.9785096, 50.0879292], [19.9805963, 50.0882014], [19.9801251, 50.089755], [19.987852, 50.0909498], [19.9875023, 50.0944007], [19.9880744, 50.0949162], [19.9876958, 50.0956238], [19.9877616, 50.0979025], [19.9924761, 50.0995558], [19.9920411, 50.1002648], [19.9907013, 50.0999456], [19.99043, 50.1004055], [19.9910077, 50.1019488], [19.9910264, 50.1038952], [19.9866724, 50.1047823], [19.9894953, 50.1053567], [19.9920494, 50.1065266], [19.9998869, 50.107244], [20.0162471, 50.1066194], [20.0220958, 50.1051811], [20.0242413, 50.1039435], [20.0276286, 50.1043586], [20.0280024, 50.1057673], [20.0300359, 50.105885], [20.0316243, 50.1078848], [20.0340296, 50.1087366], [20.0355639, 50.1058568], [20.0377988, 50.1058171], [20.0381019, 50.105412], [20.0332703, 50.1042955], [20.0345435, 50.1021139], [20.0321271, 50.0995362], [20.0308408, 50.0994483], [20.0298569, 50.0987973], [20.0298193, 50.0980774], [20.0311125, 50.0976878], [20.0321281, 50.0962084], [20.0327062, 50.0946781], [20.0322665, 50.0943925], [20.0295173, 50.0932915], [20.0278879, 50.093323], [20.0198886, 50.0954351], [20.0174623, 50.0953953], [20.0139919, 50.0939344]]]}}, {"type": "Feature", "properties": {"name": "Nowa Huta", "kind": "district", "ref": null}, "geometry": {"type": "Polygon", "coordinates": [[[20.1068556, 50.0424426], [20.104374, 50.04128], [20.102254, 50.0411926], [20.0980812, 50.0417966], [20.0962528, 50.0425767], [20.0943795, 50.0444229], [20.0944549, 50.0476121], [20.0931432, 50.0499659], [20.0908048, 50.0518509], [20.0876127, 50.0529289], [20.0829465, 50.0527174], [20.0690363, 50.050541], [20.0609457, 50.0504424], [20.0513553, 50.0520032], [20.0483422, 50.0519143], [20.0474374, 50.0528372], [20.0475439, 50.0534721], [20.0420847, 50.0539645], [20.036133, 50.0562429], [20.0372884, 50.0577543], [20.0393246, 50.0586503], [20.0384136, 50.0589353], [20.0416675, 50.0600164], [20.0421377, 50.0614601], [20.0414652, 50.0615654], [20.0415906, 50.0623851], [20.0403293, 50.0624185], [20.0406141, 50.0631732], [20.0371586, 50.0640621], [20.0353271, 50.0643631], [20.0355252, 50.0639705], [20.0351492, 50.0639903], [20.0314471, 50.0647657], [20.0290185, 50.0660671], [20.028967, 50.0679212], [20.0308882, 50.069743], [20.0295404, 50.0701085], [20.0287164, 50.0710042], [20.0292233, 50.0720307], [20.0210754, 50.0729363], [20.016939, 50.0726009], [20.0161388, 50.0731863], [20.0162856, 50.0739415], [20.0256276, 50.078741], [20.0269827, 50.080272], [20.0280885, 50.0803257], [20.0285838, 50.0797336], [20.0383871, 50.0850529], [20.0406738, 50.0834124], [20.0435259, 50.0827795], [20.049657, 50.0802046], [20.0523444, 50.0764172], [20.062863, 50.0791466], [20.0661205, 50.079582], [20.0666273, 50.0813893], [20.0842529, 50.0894963], [20.0854543, 50.0906818], [20.0850427, 50.091721], [20.0932432, 50.0922808], [20.1073502, 50.0896429], [20.1124628, 50.0879425], [20.1156001, 50.0875371], [20.116634, 50.087669], [20.1163224, 50.08861], [20.1251687, 50.0900562], [20.1284393, 50.0909963], [20.1282431, 50.0914718], [20.1292482, 50.0916279], [20.1294353, 50.091154], [20.1311672, 50.0914654], [20.1331054, 50.0921357], [20.1331806, 50.0926207], [20.1348886, 50.0916234], [20.1543475, 50.0946013], [20.1547109, 50.0969148], [20.1542455, 50.0999692], [20.1568742, 50.1004035], [20.1569726, 50.1009607], [20.1560472, 50.1010007], [20.1574851, 50.1070467], [20.1608726, 50.11066], [20.1589671, 50.1120193], [20.1588161, 50.1150004], [20.1571682, 50.1179452], [20.1563402, 50.1185711], [20.1591962, 50.1208013], [20.1590596, 50.1216058], [20.1658476, 50.1215309], [20.1658057, 50.1205136], [20.1723928, 50.1203855], [20.1731873, 50.1188238], [20.1742213, 50.1190197], [20.1749363, 50.1197894], [20.1787847, 50.1183375], [20.1798143, 50.11723], [20.1815673, 50.1166257], [20.1824523, 50.1178363], [20.1853525, 50.1167593], [20.1868614, 50.1182179], [20.1897515, 50.1177983], [20.1910273, 50.1190525], [20.1925024, 50.119634], [20.1954917, 50.118492], [20.1962474, 50.1196803], [20.1977911, 50.1196395], [20.1989838, 50.1205715], [20.2012909, 50.120432], [20.2016157, 50.1174874], [20.2047727, 50.117386], [20.2038554, 50.1171524], [20.20398, 50.1159551], [20.2090788, 50.1155647], [20.2050176, 50.1111306], [20.2022411, 50.1111167], [20.1978859, 50.108509], [20.1961313, 50.1082614], [20.1950586, 50.1054128], [20.1931038, 50.1032182], [20.1916327, 50.0974844], [20.1917423, 50.0916509], [20.1928405, 50.0878221], [20.1891868, 50.0864468], [20.1849291, 50.0860661], [20.1855854, 50.0853686], [20.1893085, 50.0847394], [20.1899702, 50.0839734], [20.1900179, 50.0819864], [20.1926948, 50.0804374], [20.1936058, 50.0791063], [20.1946136, 50.0787797], [20.1945914, 50.0782211], [20.1955268, 50.0781366], [20.1956059, 50.0763963], [20.1994603, 50.0748687], [20.1995664, 50.0742424], [20.1952346, 50.0739553], [20.1944545, 50.0734309], [20.1929623, 50.0722761], [20.1930122, 50.0704691], [20.197546, 50.0691472], [20.1989595, 50.0681528], [20.1991841, 50.0669959], [20.2043802, 50.0648186], [20.2063581, 50.0650133], [20.2122579, 50.0576876], [20.2173455, 50.053434], [20.2130242, 50.0503282], [20.2096194, 50.045107], [20.2057707, 50.043732], [20.2011191, 50.0438637], [20.1928556, 50.0475321], [20.187853, 50.0483481], [20.1838486, 50.0480159], [20.1665551, 50.0438496], [20.1595405, 50.0428268], [20.1535136, 50.0430569], [20.1422648, 50.0457455], [20.138085, 50.0457907], [20.1349488, 50.0447147], [20.1300112, 50.0406475], [20.1266206, 50.0396978], [20.1227826, 50.0403107], [20.1192986, 50.0418109], [20.1157537, 50.0425944], [20.1068556, 50.0424426]]]}}, {"type": "Feature", "properties": {"name": "Podgórze", "kind": "district", "ref": null}, "geometry": {"type": "Polygon", "coordinates": [[[19.928174, 50.0352742], [19.9348329, 50.0393552], [19.9356043, 50.0410352], [19.9420621, 50.0448324], [19.9441344, 50.0451315], [19.9481797, 50.0467289], [19.9563713, 50.051026], [19.9627876, 50.0528096], [19.9706222, 50.0522172], [19.9770151, 50.0535231], [19.9802051, 50.0551264], [19.9842264, 50.0590973], [19.9868506, 50.0598554], [19.9903078, 50.0595668], [19.9939581, 50.058001], [19.9965176, 50.0560433], [19.999261, 50.0511293], [20.0010919, 50.0495073], [20.0055191, 50.0469849], [20.011181, 50.0450315], [20.0140976, 50.0449508], [20.0158508, 50.0455393], [20.0200898, 50.0506038], [20.0228337, 50.0516809], [20.0258934, 50.0513833], [20.0322599, 50.0484436], [20.0370525, 50.0478342], [20.0403929, 50.0484484], [20.0458593, 50.051272], [20.049406, 50.0520369], [20.0588647, 50.0505679], [20.066149, 50.050398], [20.0866586, 50.0530611], [20.0902032, 50.0521704], [20.0931432, 50.0499659], [20.0944549, 50.0476121], [20.0943795, 50.0444229], [20.0955652, 50.0430163], [20.0980812, 50.0417966], [20.1031885, 50.0411843], [20.099366, 50.0378006], [20.0959551, 50.0369577], [20.0940225, 50.0371484], [20.0916926, 50.0386878], [20.0916434, 50.0402405], [20.0922827, 50.0420709], [20.0891016, 50.0448222], [20.0879882, 50.044891], [20.0836815, 50.0415626], [20.0803266, 50.0407033], [20.0810186, 50.0387092], [20.0819834, 50.038913], [20.0838074, 50.0378975], [20.0797312, 50.0358002], [20.0817144, 50.0342604], [20.0746815, 50.0325887], [20.0728222, 50.0314348], [20.0627558, 50.0338389], [20.0577521, 50.033705], [20.0529176, 50.0344258], [20.0395236, 50.0340192], [20.0350146, 50.0351122], [20.0331012, 50.0349643], [20.029379, 50.0341048], [20.0296815, 50.0307028], [20.0295649, 50.0300561], [20.0278421, 50.0284711], [20.027942, 50.0253181], [20.0198273, 50.0265069], [20.0143601, 50.0279737], [20.0148307, 50.0281486], [20.0145495, 50.02833], [20.0136518, 50.0280279], [19.9919795, 50.0308353], [19.9920523, 50.0303806], [19.9868641, 50.0269927], [19.9851097, 50.0263574], [19.9855293, 50.02596], [19.9841804, 50.0259567], [19.9837115, 50.0265444], [19.9819328, 50.0270947], [19.97846, 50.0258882], [19.9773812, 50.0269597], [19.9766577, 50.0267226], [19.9774207, 50.0259899], [19.9765095, 50.025413], [19.9594957, 50.0283855], [19.9589098, 50.0278209], [19.9580784, 50.0285281], [19.9504225, 50.0303847], [19.9469718, 50.0326635], [19.9462927, 50.0301262], [19.9454198, 50.029078], [19.9410528, 50.0276379], [19.9406376, 50.0282332], [19.9368376, 50.0288959], [19.9361341, 50.0286109], [19.9324216, 50.0302695], [19.9275843, 50.0302164], [19.9284661, 50.0318348], [19.92723, 50.0333437], [19.9286257, 50.034178], [19.928174, 50.0352742]]]}}, {"type": "Feature", "properties": {"name": "Podgórze Duchackie", "kind": "district", "ref": null}, "geometry": {"type": "Polygon", "coordinates": [[[19.9690943, 50.0015672], [19.9621788, 50.0008587], [19.9623992, 50.0002955], [19.9613307, 50.0001667], [19.9517642, 49.9999257], [19.9450258, 50.000473], [19.9451763, 50.0000197], [19.9415735, 50.000343], [19.9394447, 49.9995961], [19.9362555, 50.000249], [19.9357784, 50.0007357], [19.9347641, 50.0002041], [19.9351646, 50.0011978], [19.9347946, 50.0020816], [19.9396907, 50.0025052], [19.9400568, 50.0021532], [19.9434899, 50.0056079], [19.9446784, 50.0058427], [19.9451195, 50.0067245], [19.9438408, 50.0106915], [19.9439979, 50.0116195], [19.9450524, 50.0126557], [19.9448333, 50.0148787], [19.9455847, 50.022541], [19.9442957, 50.0285132], [19.946134, 50.0298243], [19.9469492, 50.0326591], [19.9504225, 50.0303847], [19.9580784, 50.0285281], [19.9589098, 50.0278209], [19.9594957, 50.0283855], [19.9763012, 50.0255359], [19.9788921, 50.0239566], [19.9771231, 50.0223845], [19.977155, 50.0177738], [19.9762071, 50.0168037], [19.9727419, 50.0159753], [19.9726929, 50.0155839], [19.9782116, 50.0149064], [19.9897895, 50.0149433], [19.9912064, 50.0154406], [19.9910602, 50.0145177], [19.9923855, 50.0132446], [19.9908162, 50.0132926], [19.9909561, 50.0129221], [19.9902386, 50.0123429], [19.9907073, 50.0112618], [19.9966994, 50.008351], [20.0006628, 50.0053885], [20.001628, 50.0038313], [20.0031952, 50.0034041], [20.0002901, 50.0024671], [20.0006617, 50.0020299], [20.0000716, 50.001402], [20.0011972, 50.0011406], [19.9916846, 50.0000633], [19.9827863, 50.000203], [19.9819791, 50.0007699], [19.9727165, 50.0013379], [19.9721004, 50.0008441], [19.9718492, 50.0011942], [19.9702609, 50.0009036], [19.9690943, 50.0015672]]]}}, {"type": "Feature", "properties": {"name": "Prądnik Biały", "kind": "district", "ref": null}, "geometry": {"type": "Polygon", "coordinates": [[[19.9514591, 50.0868874], [19.9473464, 50.0810012], [19.9341504, 50.0825627], [19.9160528, 50.0822165], [19.9043993, 50.0826169], [19.896348, 50.0838093], [19.8913398, 50.0834324], [19.8914135, 50.0865251], [19.8924603, 50.0872562], [19.8922653, 50.0875108], [19.8889943, 50.088158], [19.8803079, 50.0915424], [19.8689358, 50.0978567], [19.8676868, 50.0994326], [19.8673734, 50.0991782], [19.8666109, 50.0999994], [19.865317, 50.0995496], [19.8618268, 50.1059494], [19.8633191, 50.1073318], [19.8673644, 50.1074484], [19.8752732, 50.1110458], [19.8766689, 50.1125778], [19.879018, 50.1184818], [19.8818614, 50.1212383], [19.8844237, 50.1221565], [19.8895164, 50.1227551], [19.8914092, 50.1225059], [19.8904671, 50.1240076], [19.8925564, 50.1243443], [19.8925084, 50.1260797], [19.8983135, 50.1261308], [19.8983311, 50.125684], [19.8995872, 50.1257955], [19.898288, 50.125342], [19.8983767, 50.1250084], [19.9005009, 50.1255086], [19.9011041, 50.1251153], [19.9021839, 50.1235745], [19.9046893, 50.1221186], [19.9085198, 50.1181344], [19.9140637, 50.105612], [19.9151089, 50.1009326], [19.91889, 50.1001854], [19.9187832, 50.1013425], [19.926971, 50.1048116], [19.9281495, 50.1049175], [19.9281422, 50.1043255], [19.9288719, 50.1037316], [19.9307884, 50.104812], [19.9293572, 50.1066499], [19.9312038, 50.1074736], [19.9310637, 50.1086264], [19.9275991, 50.1103925], [19.9271045, 50.1102451], [19.9293568, 50.1077074], [19.9279985, 50.1078647], [19.9272073, 50.1072755], [19.9260292, 50.1081195], [19.9244441, 50.111302], [19.9257387, 50.1123993], [19.9249411, 50.1140731], [19.9272873, 50.1146219], [19.9277364, 50.1135073], [19.9354286, 50.1151557], [19.9352625, 50.115532], [19.939974, 50.1162457], [19.9401713, 50.1189269], [19.9413115, 50.1190376], [19.9431925, 50.1188236], [19.9473325, 50.1193374], [19.9487605, 50.116543], [19.9511972, 50.114074], [19.9558953, 50.1105161], [19.9574397, 50.110596], [19.9573107, 50.1093914], [19.9581334, 50.1083202], [19.960423, 50.1084806], [19.9632684, 50.1101987], [19.9721524, 50.106829], [19.9790588, 50.1058171], [19.9807161, 50.1049586], [19.9813581, 50.1055659], [19.9866724, 50.1047823], [19.9778681, 50.1015547], [19.9710566, 50.0975096], [19.966748, 50.0963517], [19.9607916, 50.0934131], [19.9532709, 50.0886045], [19.9514591, 50.0868874]]]}}, {"type": "Feature", "properties": {"name": "Prądnik Czerwony", "kind": "district", "ref": null}, "geometry": {"type": "Polygon", "coordinates": [[[19.9879001, 50.0910657], [19.9801251, 50.089755], [19.9805963, 50.0882014], [19.9785096, 50.0879292], [19.9793267, 50.0860749], [19.982456, 50.0862654], [19.982342, 50.0855431], [19.9839522, 50.0855381], [19.9864241, 50.0843159], [19.9867822, 50.0837065], [19.9861841, 50.0837185], [19.9864882, 50.0831752], [19.9876336, 50.0833123], [19.9893943, 50.0805175], [19.9872389, 50.0796649], [19.9893441, 50.0765801], [19.9881347, 50.075596], [19.9885082, 50.0732672], [19.9874181, 50.0732089], [19.9871004, 50.0725399], [19.9858707, 50.0725824], [19.9854488, 50.0721657], [19.9858273, 50.0718623], [19.9833686, 50.0698379], [19.9828809, 50.0700562], [19.9817696, 50.0684014], [19.9810142, 50.068784], [19.9767201, 50.0672917], [19.9739995, 50.0715456], [19.9720039, 50.0737051], [19.9671586, 50.0771999], [19.9592973, 50.0796367], [19.9473464, 50.0810012], [19.952095, 50.0876871], [19.9593259, 50.0925492], [19.966748, 50.0963517], [19.9710566, 50.0975096], [19.9778681, 50.1015547], [19.9866724, 50.1047823], [19.9910264, 50.1038952], [19.9910077, 50.1019488], [19.99043, 50.1004055], [19.9907013, 50.0999456], [19.9920411, 50.1002648], [19.9924761, 50.0995558], [19.9877616, 50.0979025], [19.9876958, 50.0956238], [19.9880744, 50.0949162], [19.9875023, 50.0944007], [19.9879001, 50.0910657]]]}}, {"type": "Feature", "properties": {"name": "Stare Miasto", "kind": "district", "ref": null}, "geometry": {"type": "Polygon", "coordinates": [[[19.9473454, 50.0583908], [19.9478544, 50.0555337], [19.9483395, 50.0554721], [19.9489245, 50.0540737], [19.9533449, 50.050652], [19.9538185, 50.0508616], [19.9546645, 50.0501079], [19.948861, 50.0470321], [19.9441344, 50.0451315], [19.9396592, 50.0450325], [19.937798, 50.0457762], [19.9355305, 50.0480297], [19.9313823, 50.0542002], [19.9284862, 50.054166], [19.9237696, 50.0626063], [19.9253908, 50.0668747], [19.9277067, 50.0702799], [19.9329353, 50.0729579], [19.9381107, 50.0734806], [19.9410185, 50.0755857], [19.941054, 50.0760495], [19.9454141, 50.0775278], [19.9473633, 50.0809769], [19.9566424, 50.0798617], [19.9579216, 50.0787599], [19.9601668, 50.0786307], [19.952084, 50.0677792], [19.949973, 50.0681493], [19.9492579, 50.0650062], [19.9473933, 50.0648353], [19.9473454, 50.0583908]]]}}, {"type": "Feature", "properties": {"name": "Swoszowice", "kind": "district", "ref": null}, "geometry": {"type": "Polygon", "coordinates": [[[19.9621788, 50.0008587], [19.9690943, 50.0015672], [19.9702609, 50.0009036], [19.9718492, 50.0011942], [19.9721004, 50.0008441], [19.9727165, 50.0013379], [19.9819791, 50.0007699], [19.9827863, 50.000203], [19.9916846, 50.0000633], [20.0039417, 50.0013875], [20.0034788, 49.9998264], [20.002761, 49.9992344], [20.0032545, 49.9980064], [20.004425, 49.9969718], [20.0122329, 49.9946847], [20.0128439, 49.993422], [20.0134532, 49.9933293], [20.0139143, 49.9913531], [20.015427, 49.9888524], [20.0183404, 49.9867573], [20.0186045, 49.9858628], [20.0160234, 49.9843801], [20.0137671, 49.9822941], [20.0097018, 49.9801825], [20.0100162, 49.9772436], [20.0091689, 49.9760989], [20.0076733, 49.9754066], [20.0082233, 49.9750835], [20.0068733, 49.9747586], [20.0029029, 49.9746767], [20.0033912, 49.9751532], [20.0011253, 49.9756835], [19.9972934, 49.9739454], [19.9900818, 49.973002], [19.9813196, 49.9726234], [19.9810732, 49.9732173], [19.9822611, 49.9760921], [19.9822352, 49.9771143], [19.9813777, 49.9782335], [19.9825911, 49.9801889], [19.9824853, 49.9809244], [19.9778601, 49.9811697], [19.9689581, 49.9794891], [19.9642996, 49.977746], [19.9655997, 49.9764785], [19.9670402, 49.9731654], [19.9649011, 49.9730217], [19.963093, 49.9723236], [19.9628773, 49.9712333], [19.9634431, 49.9685611], [19.9616766, 49.9683258], [19.9616001, 49.9689444], [19.9594615, 49.9692598], [19.9588683, 49.9682463], [19.9573098, 49.968336], [19.9575307, 49.9678764], [19.9566259, 49.9682478], [19.9556714, 49.9676668], [19.9557148, 49.9686563], [19.9541131, 49.9694716], [19.9538055, 49.9700766], [19.9521058, 49.9701007], [19.9517147, 49.9695172], [19.9508387, 49.9698584], [19.951225, 49.9706404], [19.9505786, 49.9707003], [19.9506951, 49.9710788], [19.9489689, 49.9712947], [19.9476494, 49.9722927], [19.9449165, 49.9722153], [19.9444424, 49.9730598], [19.9437734, 49.9728452], [19.9428496, 49.9733409], [19.9432711, 49.9739451], [19.940608, 49.9744606], [19.9407373, 49.9747991], [19.9401038, 49.9748682], [19.9402646, 49.9752789], [19.9390737, 49.9745399], [19.9377745, 49.9745374], [19.9340521, 49.9755714], [19.9344718, 49.9764385], [19.9329771, 49.9768564], [19.9331788, 49.9777148], [19.9324432, 49.9782152], [19.9325897, 49.9787939], [19.9314354, 49.9784321], [19.9284075, 49.9791477], [19.9274167, 49.9798253], [19.9278168, 49.9802849], [19.9273426, 49.9808216], [19.9256973, 49.9813188], [19.9189848, 49.9799994], [19.9133463, 49.9798532], [19.9120007, 49.9813064], [19.9096517, 49.9819736], [19.9085548, 49.9814969], [19.9001585, 49.9812178], [19.8962633, 49.9804363], [19.8873182, 49.9803899], [19.8888808, 49.9833335], [19.8862689, 49.9831223], [19.8862597, 49.9844164], [19.8857663, 49.9846892], [19.8870747, 49.9866127], [19.8932005, 49.9869309], [19.892789, 49.9875805], [19.8929784, 49.9884689], [19.891905, 49.9890829], [19.8918388, 49.9899954], [19.890142, 49.9904025], [19.8901783, 49.9921883], [19.8925537, 49.9923279], [19.8950662, 49.9951144], [19.8955512, 49.9963403], [19.8958249, 49.9960985], [19.8949286, 49.9983076], [19.8939756, 49.9982681], [19.8937956, 49.99997], [19.8888214, 50.0026757], [19.8900286, 50.0068139], [19.8914119, 50.006999], [19.8920185, 50.0076917], [19.89549, 50.0075707], [19.8985791, 50.0066422], [19.9026854, 50.0065159], [19.9047798, 50.0070613], [19.9089897, 50.009491], [19.9131726, 50.0095995], [19.91839, 50.0074086], [19.9219628, 50.0077431], [19.9261848, 50.0073324], [19.9322451, 50.0074832], [19.9350564, 50.0080064], [19.9355342, 50.0067964], [19.9350712, 50.0054289], [19.9336931, 50.00399], [19.930938, 50.0024696], [19.9327168, 50.0018341], [19.9331517, 50.0025945], [19.9347946, 50.0020816], [19.9351646, 50.0011978], [19.9348829, 50.000165], [19.9357784, 50.0007357], [19.9362555, 50.000249], [19.9394447, 49.9995961], [19.9415735, 50.000343], [19.9451763, 50.0000197], [19.9450258, 50.000473], [19.9517642, 49.9999257], [19.9613307, 50.0001667], [19.9623992, 50.0002955], [19.9621788, 50.0008587]]]}}, {"type": "Feature", "properties": {"name": "Wzgórza Krzesławickie", "kind": "district", "ref": null}, "geometry": {"type": "Polygon", "coordinates": [[[20.0336614, 50.0934884], [20.0296263, 50.0933486], [20.0327062, 50.0946781], [20.0311609, 50.0976264], [20.0301936, 50.097746], [20.0297181, 50.0984739], [20.030804, 50.099434], [20.0321271, 50.0995362], [20.0345435, 50.1021139], [20.0332703, 50.1042955], [20.0381019, 50.105412], [20.0377988, 50.1058171], [20.0355639, 50.1058568], [20.0341117, 50.1084762], [20.0357976, 50.1086157], [20.0352289, 50.1099936], [20.03601, 50.1101676], [20.0369446, 50.1113267], [20.0370829, 50.1127415], [20.0397356, 50.1133235], [20.0419197, 50.1134874], [20.0441835, 50.1106947], [20.0447071, 50.1103223], [20.0454733, 50.1111558], [20.0469527, 50.1093135], [20.0507638, 50.1102854], [20.0510631, 50.1105591], [20.0503594, 50.1109404], [20.0507242, 50.1111923], [20.0518694, 50.1106397], [20.0525191, 50.1120886], [20.0535016, 50.1128233], [20.056429, 50.1126015], [20.0580733, 50.1137381], [20.0584777, 50.1146945], [20.0617882, 50.1142662], [20.0615879, 50.1135309], [20.062737, 50.1134483], [20.0701623, 50.1139286], [20.0702607, 50.1127399], [20.0764541, 50.112959], [20.0789653, 50.1124076], [20.0754935, 50.1094895], [20.0772818, 50.1082195], [20.0782645, 50.1083009], [20.0837206, 50.1098115], [20.0843567, 50.111225], [20.0879526, 50.1114018], [20.0881601, 50.1134611], [20.0941148, 50.1147935], [20.0942206, 50.1163003], [20.0962474, 50.1193493], [20.1083761, 50.116733], [20.1113472, 50.1164986], [20.1113953, 50.1168973], [20.114826, 50.1169939], [20.1172589, 50.1167823], [20.1179553, 50.1162842], [20.1185541, 50.1167724], [20.1199843, 50.1164544], [20.1208459, 50.1084578], [20.123137, 50.108448], [20.1317098, 50.1068346], [20.1431143, 50.1064684], [20.1446619, 50.111458], [20.1463353, 50.1137436], [20.1517406, 50.1172161], [20.1530102, 50.1188226], [20.1543396, 50.1194579], [20.1569807, 50.1182011], [20.1588161, 50.1150004], [20.1589183, 50.1121137], [20.1608726, 50.11066], [20.1574851, 50.1070467], [20.1560472, 50.1010007], [20.1569726, 50.1009607], [20.1568742, 50.1004035], [20.1542455, 50.0999692], [20.1547109, 50.0969148], [20.1543475, 50.0946013], [20.1348886, 50.0916234], [20.1331806, 50.0926207], [20.1331054, 50.0921357], [20.1311672, 50.0914654], [20.1294353, 50.091154], [20.1292482, 50.0916279], [20.1282431, 50.0914718], [20.1284393, 50.0909963], [20.1251687, 50.0900562], [20.1163224, 50.08861], [20.116634, 50.087669], [20.1156001, 50.0875371], [20.1124628, 50.0879425], [20.1073502, 50.0896429], [20.0932432, 50.0922808], [20.0850427, 50.091721], [20.0854543, 50.0906818], [20.0842529, 50.0894963], [20.0666273, 50.0813893], [20.0661205, 50.079582], [20.056487, 50.0774473], [20.0559612, 50.0787715], [20.0530517, 50.0810543], [20.0536436, 50.0836488], [20.0494288, 50.0835157], [20.0477572, 50.0846228], [20.0468476, 50.0868448], [20.0472426, 50.0887536], [20.0449812, 50.0896083], [20.0382902, 50.0893298], [20.0326647, 50.0908302], [20.0338063, 50.092489], [20.0336614, 50.0934884]]]}}, {"type": "Feature", "properties": {"name": "Zwierzyniec", "kind": "district", "ref": null}, "geometry": {"type": "Polygon", "coordinates": [[[19.8345348, 50.0885051], [19.8367077, 50.0880023], [19.8378531, 50.0871508], [19.8383327, 50.0863193], [19.8376335, 50.085181], [19.837847, 50.0844246], [19.8392651, 50.0828662], [19.8457856, 50.0781901], [19.8525789, 50.0778751], [19.8557224, 50.0767604], [19.8584104, 50.0766326], [19.8629978, 50.0737255], [19.866015, 50.0731905], [19.8679434, 50.0720918], [19.8730595, 50.0717886], [19.8820065, 50.0678372], [19.8876506, 50.0672821], [19.8881344, 50.0675661], [19.9024723, 50.0631895], [19.9026649, 50.0625984], [19.9255113, 50.0592236], [19.9284862, 50.054166], [19.9218382, 50.0519589], [19.9089806, 50.0507624], [19.9064821, 50.0488701], [19.9008508, 50.0412187], [19.8982544, 50.0393075], [19.8959375, 50.0385824], [19.884482, 50.0381125], [19.8795243, 50.0387066], [19.8724876, 50.0431913], [19.8690548, 50.0439245], [19.8516306, 50.0433775], [19.8473734, 50.0424498], [19.8413619, 50.0385607], [19.8367281, 50.0365728], [19.8281516, 50.035167], [19.8269838, 50.0344945], [19.8262339, 50.0327405], [19.8245131, 50.0320739], [19.8210675, 50.0318898], [19.8186645, 50.0323359], [19.8155188, 50.0338106], [19.8134315, 50.0354073], [19.8125822, 50.0376849], [19.8128512, 50.0392016], [19.8120706, 50.0401458], [19.8106401, 50.0406543], [19.8106768, 50.041674], [19.8112881, 50.0433214], [19.8177365, 50.049103], [19.8194993, 50.0514606], [19.8207069, 50.0552748], [19.820733, 50.056804], [19.8219393, 50.0582158], [19.8198426, 50.0582196], [19.8158687, 50.0593535], [19.8110654, 50.0584946], [19.809293, 50.0610013], [19.8045257, 50.0621045], [19.804608, 50.0645511], [19.8016969, 50.0692124], [19.8059651, 50.0720828], [19.8083304, 50.0770339], [19.8082856, 50.0783909], [19.8094315, 50.0793703], [19.8112522, 50.080164], [19.818458, 50.081031], [19.8193555, 50.0817307], [19.823283, 50.0825909], [19.8236892, 50.083424], [19.8279977, 50.0858011], [19.829828, 50.0881164], [19.8345348, 50.0885051]]]}}, {"type": "Feature", "properties": {"name": "Łagiewniki-Borek Fałęcki", "kind": "district", "ref": null}, "geometry": {"type": "Polygon", "coordinates": [[[19.9408854, 50.0279039], [19.9442957, 50.0285132], [19.9455934, 50.0233038], [19.9448333, 50.0148787], [19.9450524, 50.0126557], [19.9439979, 50.0116195], [19.9438408, 50.0106915], [19.9451608, 50.0068503], [19.9446784, 50.0058427], [19.9434899, 50.0056079], [19.9407807, 50.0024899], [19.9347946, 50.0020816], [19.9331517, 50.0025945], [19.9330517, 50.0018301], [19.930938, 50.0024696], [19.9336931, 50.00399], [19.9350712, 50.0054289], [19.9355342, 50.0067964], [19.9352535, 50.0079736], [19.9322451, 50.0074832], [19.9261848, 50.0073324], [19.9219628, 50.0077431], [19.9187978, 50.0073892], [19.9161301, 50.008047], [19.9134914, 50.0095832], [19.9092244, 50.0095345], [19.9074651, 50.0087606], [19.9070904, 50.0092203], [19.9087824, 50.0128562], [19.9111253, 50.0164426], [19.9135971, 50.0188735], [19.9143636, 50.0205982], [19.9195544, 50.0222062], [19.9206946, 50.0230742], [19.9223031, 50.0232822], [19.9224931, 50.0253059], [19.9220378, 50.0265577], [19.9252727, 50.0258407], [19.9257756, 50.0252147], [19.92686, 50.0267706], [19.9265179, 50.0273226], [19.9267971, 50.0281609], [19.9261308, 50.0288426], [19.9275843, 50.0302164], [19.9324216, 50.0302695], [19.9361341, 50.0286109], [19.9368882, 50.0288889], [19.9408854, 50.0279039]]]}}]}